{
  "type": "FeatureCollection",
  "features": [
    {
      "type": "Feature",
      "properties": {
        "norad_id": 44333,
        "name": "AT&T T-16",
        "group": "intelsat",
        "lat": 0.03616270052137373,
        "lon": 138.93179208640652,
        "alt_km": 35784.184454872615,
        "timestamp": "2025-12-24T09:46:30.663533+00:00",
        "meta_object_name": "AT&T T-16",
        "meta_object_id": "2019-034A",
        "meta_epoch": "2025-12-23T22:55:25.671936",
        "meta_mean_motion": 1.00268558,
        "meta_eccentricity": 6.69e-05,
        "meta_inclination": 0.0228,
        "meta_ra_of_asc_node": 67.9518,
        "meta_arg_of_pericenter": 76.4171,
        "meta_mean_anomaly": 191.3588,
        "meta_ephemeris_type": 0,
        "meta_classification_type": "U",
        "meta_norad_cat_id": 44333,
        "meta_element_set_no": 999,
        "meta_rev_at_epoch": 2387,
        "meta_bstar": 0,
        "meta_mean_motion_dot": -9.4e-07,
        "meta_mean_motion_ddot": 0,
        "tle_line1": "1 44333U 19034A   25357.95515824 -.00000094  00000+0  00000+0 0  9997",
        "tle_line2": "2 44333   0.0228  67.9518 0000669  76.4171 191.3588  1.00268558 23874"
      },
      "geometry": {
        "type": "Point",
        "coordinates": [
          138.93179208640652,
          0.03616270052137373
        ]
      }
    },
    {
      "type": "Feature",
      "properties": {
        "norad_id": 44476,
        "name": "INTELSAT 39 (IS-39)",
        "group": "intelsat",
        "lat": -0.040327606371531585,
        "lon": -58.25651967804853,
        "alt_km": 35791.04443837521,
        "timestamp": "2025-12-24T09:46:30.663545+00:00",
        "meta_object_name": "INTELSAT 39 (IS-39)",
        "meta_object_id": "2019-049B",
        "meta_epoch": "2025-12-24T02:18:38.732832",
        "meta_mean_motion": 1.00269108,
        "meta_eccentricity": 0.0001115,
        "meta_inclination": 0.0206,
        "meta_ra_of_asc_node": 10.2624,
        "meta_arg_of_pericenter": 137.5965,
        "meta_mean_anomaly": 41.6155,
        "meta_ephemeris_type": 0,
        "meta_classification_type": "U",
        "meta_norad_cat_id": 44476,
        "meta_element_set_no": 999,
        "meta_rev_at_epoch": 2337,
        "meta_bstar": 0,
        "meta_mean_motion_dot": 0,
        "meta_mean_motion_ddot": 0,
        "tle_line1": "1 44476U 19049B   25358.09628163  .00000000  00000+0  00000+0 0  9994",
        "tle_line2": "2 44476   0.0206  10.2624 0001115 137.5965  41.6155  1.00269108 23378"
      },
      "geometry": {
        "type": "Point",
        "coordinates": [
          -58.25651967804853,
          -0.040327606371531585
        ]
      }
    },
    {
      "type": "Feature",
      "properties": {
        "norad_id": 46114,
        "name": "GALAXY 30 (G-30)",
        "group": "intelsat",
        "lat": 0.0165650089554607,
        "lon": 114.78988848410943,
        "alt_km": 35794.64758478784,
        "timestamp": "2025-12-24T09:46:30.663556+00:00",
        "meta_object_name": "GALAXY 30 (G-30)",
        "meta_object_id": "2020-056C",
        "meta_epoch": "2025-12-23T22:48:33.829920",
        "meta_mean_motion": 1.00270256,
        "meta_eccentricity": 0.0002119,
        "meta_inclination": 0.0109,
        "meta_ra_of_asc_node": 314.0178,
        "meta_arg_of_pericenter": 316.2367,
        "meta_mean_anomaly": 39.6172,
        "meta_ephemeris_type": 0,
        "meta_classification_type": "U",
        "meta_norad_cat_id": 46114,
        "meta_element_set_no": 999,
        "meta_rev_at_epoch": 1953,
        "meta_bstar": 0,
        "meta_mean_motion_dot": 5.8e-07,
        "meta_mean_motion_ddot": 0,
        "tle_line1": "1 46114U 20056C   25357.95039155  .00000058  00000+0  00000+0 0  9999",
        "tle_line2": "2 46114   0.0109 314.0178 0002119 316.2367  39.6172  1.00270256 19532"
      },
      "geometry": {
        "type": "Point",
        "coordinates": [
          114.78988848410943,
          0.0165650089554607
        ]
      }
    },
    {
      "type": "Feature",
      "properties": {
        "norad_id": 54026,
        "name": "GALAXY 33 (G-33)",
        "group": "intelsat",
        "lat": 0.02093135636382021,
        "lon": 106.80276578974691,
        "alt_km": 35792.438591328595,
        "timestamp": "2025-12-24T09:46:30.663567+00:00",
        "meta_object_name": "GALAXY 33 (G-33)",
        "meta_object_id": "2022-128A",
        "meta_epoch": "2025-12-24T03:13:32.364768",
        "meta_mean_motion": 1.00272108,
        "meta_eccentricity": 0.0001641,
        "meta_inclination": 0.013,
        "meta_ra_of_asc_node": 316.3631,
        "meta_arg_of_pericenter": 308.9961,
        "meta_mean_anomaly": 102.9447,
        "meta_ephemeris_type": 0,
        "meta_classification_type": "U",
        "meta_norad_cat_id": 54026,
        "meta_element_set_no": 999,
        "meta_rev_at_epoch": 1198,
        "meta_bstar": 0,
        "meta_mean_motion_dot": 1e-06,
        "meta_mean_motion_ddot": 0,
        "tle_line1": "1 54026U 22128A   25358.13440237  .00000100  00000+0  00000+0 0  9998",
        "tle_line2": "2 54026   0.0130 316.3631 0001641 308.9961 102.9447  1.00272108 11981"
      },
      "geometry": {
        "type": "Point",
        "coordinates": [
          106.80276578974691,
          0.02093135636382021
        ]
      }
    },
    {
      "type": "Feature",
      "properties": {
        "norad_id": 54027,
        "name": "GALAXY 34 (G-34)",
        "group": "intelsat",
        "lat": 0.040959220001021354,
        "lon": 110.83615986870818,
        "alt_km": 35793.730288603074,
        "timestamp": "2025-12-24T09:46:30.663579+00:00",
        "meta_object_name": "GALAXY 34 (G-34)",
        "meta_object_id": "2022-128B",
        "meta_epoch": "2025-12-24T02:45:16.364736",
        "meta_mean_motion": 1.00269678,
        "meta_eccentricity": 0.0001858,
        "meta_inclination": 0.0225,
        "meta_ra_of_asc_node": 353.8473,
        "meta_arg_of_pericenter": 271.0945,
        "meta_mean_anomaly": 100.3145,
        "meta_ephemeris_type": 0,
        "meta_classification_type": "U",
        "meta_norad_cat_id": 54027,
        "meta_element_set_no": 999,
        "meta_rev_at_epoch": 1215,
        "meta_bstar": 0,
        "meta_mean_motion_dot": 0,
        "meta_mean_motion_ddot": 0,
        "tle_line1": "1 54027U 22128B   25358.11477274  .00000000  00000+0  00000+0 0  9997",
        "tle_line2": "2 54027   0.0225 353.8473 0001858 271.0945 100.3145  1.00269678 12154"
      },
      "geometry": {
        "type": "Point",
        "coordinates": [
          110.83615986870818,
          0.040959220001021354
        ]
      }
    },
    {
      "type": "Feature",
      "properties": {
        "norad_id": 54243,
        "name": "GALAXY 31 (G-31)",
        "group": "intelsat",
        "lat": 0.007818401438236696,
        "lon": 118.79455255527691,
        "alt_km": 35792.145933375876,
        "timestamp": "2025-12-24T09:46:30.663591+00:00",
        "meta_object_name": "GALAXY 31 (G-31)",
        "meta_object_id": "2022-153A",
        "meta_epoch": "2025-12-23T15:58:50.418048",
        "meta_mean_motion": 1.00271329,
        "meta_eccentricity": 0.00014745,
        "meta_inclination": 0.0283,
        "meta_ra_of_asc_node": 245.972,
        "meta_arg_of_pericenter": 36.0828,
        "meta_mean_anomaly": 289.1035,
        "meta_ephemeris_type": 0,
        "meta_classification_type": "U",
        "meta_norad_cat_id": 54243,
        "meta_element_set_no": 999,
        "meta_rev_at_epoch": 537,
        "meta_bstar": 0,
        "meta_mean_motion_dot": 3.4e-07,
        "meta_mean_motion_ddot": 0,
        "tle_line1": "1 54243U 22153A   25357.66586132  .00000034  00000+0  00000+0 0  9995",
        "tle_line2": "2 54243   0.0283 245.9720 0001474  36.0828 289.1035  1.00271329  5373"
      },
      "geometry": {
        "type": "Point",
        "coordinates": [
          118.79455255527691,
          0.007818401438236696
        ]
      }
    },
    {
      "type": "Feature",
      "properties": {
        "norad_id": 54244,
        "name": "GALAXY 32 (G-32)",
        "group": "intelsat",
        "lat": 0.0230497465802942,
        "lon": 148.79778766284338,
        "alt_km": 35793.79629182594,
        "timestamp": "2025-12-24T09:46:30.663603+00:00",
        "meta_object_name": "GALAXY 32 (G-32)",
        "meta_object_id": "2022-153B",
        "meta_epoch": "2025-12-24T00:35:10.536864",
        "meta_mean_motion": 1.00272312,
        "meta_eccentricity": 0.0001904,
        "meta_inclination": 0.0096,
        "meta_ra_of_asc_node": 16.5696,
        "meta_arg_of_pericenter": 300.0291,
        "meta_mean_anomaly": 53.9983,
        "meta_ephemeris_type": 0,
        "meta_classification_type": "U",
        "meta_norad_cat_id": 54244,
        "meta_element_set_no": 999,
        "meta_rev_at_epoch": 1138,
        "meta_bstar": 0,
        "meta_mean_motion_dot": -1.53e-06,
        "meta_mean_motion_ddot": 0,
        "tle_line1": "1 54244U 22153B   25358.02442751 -.00000153  00000+0  00000+0 0  9998",
        "tle_line2": "2 54244   0.0096  16.5696 0001904 300.0291  53.9983  1.00272312 11386"
      },
      "geometry": {
        "type": "Point",
        "coordinates": [
          148.79778766284338,
          0.0230497465802942
        ]
      }
    }
  ]
}